CCSDS_OMM_VERS = 2.0
CREATION_DATE  = 
ORIGINATOR     = 

OBJECT_NAME    = DELTA 2 R/B(1)
OBJECT_ID      = 1990-008B
CENTER_NAME    = EARTH
REF_FRAME      = TEME
TIME_SYSTEM    = UTC
MEAN_ELEMENT_THEORY = SGP/SGP4

EPOCH          = 2026-03-01T13:03:02.443392
MEAN_MOTION    = 15.54713167
ECCENTRICITY   = .0087148
INCLINATION    = 35.6027
RA_OF_ASC_NODE = 228.2657
ARG_OF_PERICENTER = 183.1700
MEAN_ANOMALY   = 176.8491

EPHEMERIS_TYPE = 0
CLASSIFICATION_TYPE = U
NORAD_CAT_ID   = 20453
ELEMENT_SET_NO = 999
REV_AT_EPOCH   = 92486
BSTAR          = .90457E-3
MEAN_MOTION_DOT = .74143E-3
MEAN_MOTION_DDOT = 0

CCSDS_OMM_VERS = 2.0
CREATION_DATE  = 
ORIGINATOR     = 

OBJECT_NAME    = COSMOS 2058
OBJECT_ID      = 1990-010A
CENTER_NAME    = EARTH
REF_FRAME      = TEME
TIME_SYSTEM    = UTC
MEAN_ELEMENT_THEORY = SGP/SGP4

EPOCH          = 2026-03-01T10:30:41.364864
MEAN_MOTION    = 15.11232471
ECCENTRICITY   = .000996
INCLINATION    = 82.4663
RA_OF_ASC_NODE = 55.5574
ARG_OF_PERICENTER = 10.7417
MEAN_ANOMALY   = 349.4024

EPHEMERIS_TYPE = 0
CLASSIFICATION_TYPE = U
NORAD_CAT_ID   = 20465
ELEMENT_SET_NO = 999
REV_AT_EPOCH   = 94099
BSTAR          = .28222E-3
MEAN_MOTION_DOT = .4775E-4
MEAN_MOTION_DDOT = 0

CCSDS_OMM_VERS = 2.0
CREATION_DATE  = 
ORIGINATOR     = 

OBJECT_NAME    = SL-14 R/B
OBJECT_ID      = 1990-010B
CENTER_NAME    = EARTH
REF_FRAME      = TEME
TIME_SYSTEM    = UTC
MEAN_ELEMENT_THEORY = SGP/SGP4

EPOCH          = 2026-03-01T20:42:49.953024
MEAN_MOTION    = 14.83561019
ECCENTRICITY   = .0019036
INCLINATION    = 82.4993
RA_OF_ASC_NODE = 274.7424
ARG_OF_PERICENTER = 329.6298
MEAN_ANOMALY   = 30.3813

EPHEMERIS_TYPE = 0
CLASSIFICATION_TYPE = U
NORAD_CAT_ID   = 20466
ELEMENT_SET_NO = 999
REV_AT_EPOCH   = 92732
BSTAR          = .5535E-4
MEAN_MOTION_DOT = .481E-5
MEAN_MOTION_DDOT = 0

CCSDS_OMM_VERS = 2.0
CREATION_DATE  = 
ORIGINATOR     = 

OBJECT_NAME    = SL-14 R/B
OBJECT_ID      = 1990-018B
CENTER_NAME    = EARTH
REF_FRAME      = TEME
TIME_SYSTEM    = UTC
MEAN_ELEMENT_THEORY = SGP/SGP4

EPOCH          = 2026-03-01T12:51:35.304192
MEAN_MOTION    = 14.82134195
ECCENTRICITY   = .0017558
INCLINATION    = 82.5190
RA_OF_ASC_NODE = 230.7117
ARG_OF_PERICENTER = 116.7542
MEAN_ANOMALY   = 243.5471

EPHEMERIS_TYPE = 0
CLASSIFICATION_TYPE = U
NORAD_CAT_ID   = 20511
ELEMENT_SET_NO = 999
REV_AT_EPOCH   = 92137
BSTAR          = .7361E-4
MEAN_MOTION_DOT = .611E-5
MEAN_MOTION_DDOT = 0

CCSDS_OMM_VERS = 2.0
CREATION_DATE  = 
ORIGINATOR     = 

OBJECT_NAME    = HST
OBJECT_ID      = 1990-037B
CENTER_NAME    = EARTH
REF_FRAME      = TEME
TIME_SYSTEM    = UTC
MEAN_ELEMENT_THEORY = SGP/SGP4

EPOCH          = 2026-03-01T09:28:14.039616
MEAN_MOTION    = 15.29328400
ECCENTRICITY   = .0001584
INCLINATION    = 28.4699
RA_OF_ASC_NODE = 96.5806
ARG_OF_PERICENTER = 41.9765
MEAN_ANOMALY   = 318.0951

EPHEMERIS_TYPE = 0
CLASSIFICATION_TYPE = U
NORAD_CAT_ID   = 20580
ELEMENT_SET_NO = 999
REV_AT_EPOCH   = 77204
BSTAR          = .28681E-3
MEAN_MOTION_DOT = .8629E-4
MEAN_MOTION_DDOT = 0

CCSDS_OMM_VERS = 2.0
CREATION_DATE  = 
ORIGINATOR     = 

OBJECT_NAME    = SL-16 R/B
OBJECT_ID      = 1990-046B
CENTER_NAME    = EARTH
REF_FRAME      = TEME
TIME_SYSTEM    = UTC
MEAN_ELEMENT_THEORY = SGP/SGP4

EPOCH          = 2026-03-01T20:24:35.151840
MEAN_MOTION    = 14.15014986
ECCENTRICITY   = .0016071
INCLINATION    = 71.0005
RA_OF_ASC_NODE = 314.3784
ARG_OF_PERICENTER = 310.1899
MEAN_ANOMALY   = 49.7816

EPHEMERIS_TYPE = 0
CLASSIFICATION_TYPE = U
NORAD_CAT_ID   = 20625
ELEMENT_SET_NO = 999
REV_AT_EPOCH   = 84728
BSTAR          = -.52715E-4
MEAN_MOTION_DOT = -.15E-5
MEAN_MOTION_DDOT = 0

CCSDS_OMM_VERS = 2.0
CREATION_DATE  = 
ORIGINATOR     = 

OBJECT_NAME    = COSMOS 2084
OBJECT_ID      = 1990-055A
CENTER_NAME    = EARTH
REF_FRAME      = TEME
TIME_SYSTEM    = UTC
MEAN_ELEMENT_THEORY = SGP/SGP4

EPOCH          = 2026-03-01T19:38:37.668192
MEAN_MOTION    = 15.05591880
ECCENTRICITY   = .0018213
INCLINATION    = 62.7921
RA_OF_ASC_NODE = 2.4212
ARG_OF_PERICENTER = 188.1686
MEAN_ANOMALY   = 171.9120

EPHEMERIS_TYPE = 0
CLASSIFICATION_TYPE = U
NORAD_CAT_ID   = 20663
ELEMENT_SET_NO = 999
REV_AT_EPOCH   = 93513
BSTAR          = .24661E-3
MEAN_MOTION_DOT = .3383E-4
MEAN_MOTION_DDOT = 0

CCSDS_OMM_VERS = 2.0
CREATION_DATE  = 
ORIGINATOR     = 

OBJECT_NAME    = SL-6 R/B(2)
OBJECT_ID      = 1990-055D
CENTER_NAME    = EARTH
REF_FRAME      = TEME
TIME_SYSTEM    = UTC
MEAN_ELEMENT_THEORY = SGP/SGP4

EPOCH          = 2026-03-01T20:33:56.590272
MEAN_MOTION    = 15.03550401
ECCENTRICITY   = .0023523
INCLINATION    = 62.7821
RA_OF_ASC_NODE = 280.4880
ARG_OF_PERICENTER = 345.0541
MEAN_ANOMALY   = 14.9860

EPHEMERIS_TYPE = 0
CLASSIFICATION_TYPE = U
NORAD_CAT_ID   = 20666
ELEMENT_SET_NO = 999
REV_AT_EPOCH   = 93701
BSTAR          = .18142E-3
MEAN_MOTION_DOT = .2302E-4
MEAN_MOTION_DDOT = 0

CCSDS_OMM_VERS = 2.0
CREATION_DATE  = 
ORIGINATOR     = 

OBJECT_NAME    = SL-8 R/B
OBJECT_ID      = 1990-078B
CENTER_NAME    = EARTH
REF_FRAME      = TEME
TIME_SYSTEM    = UTC
MEAN_ELEMENT_THEORY = SGP/SGP4

EPOCH          = 2026-03-01T13:52:57.016416
MEAN_MOTION    = 14.88746040
ECCENTRICITY   = .036418
INCLINATION    = 82.8995
RA_OF_ASC_NODE = 258.6057
ARG_OF_PERICENTER = 41.2322
MEAN_ANOMALY   = 321.5795

EPHEMERIS_TYPE = 0
CLASSIFICATION_TYPE = U
NORAD_CAT_ID   = 20775
ELEMENT_SET_NO = 999
REV_AT_EPOCH   = 80809
BSTAR          = .4802E-3
MEAN_MOTION_DOT = .16351E-3
MEAN_MOTION_DDOT = 0

CCSDS_OMM_VERS = 2.0
CREATION_DATE  = 
ORIGINATOR     = 

OBJECT_NAME    = SL-8 R/B
OBJECT_ID      = 1991-006B
CENTER_NAME    = EARTH
REF_FRAME      = TEME
TIME_SYSTEM    = UTC
MEAN_ELEMENT_THEORY = SGP/SGP4

EPOCH          = 2026-03-01T20:43:41.309184
MEAN_MOTION    = 13.77493201
ECCENTRICITY   = .0023476
INCLINATION    = 82.9463
RA_OF_ASC_NODE = 175.8634
ARG_OF_PERICENTER = 59.4326
MEAN_ANOMALY   = 58.4915

EPHEMERIS_TYPE = 0
CLASSIFICATION_TYPE = U
NORAD_CAT_ID   = 21088
ELEMENT_SET_NO = 999
REV_AT_EPOCH   = 76299
BSTAR          = .2821E-4
MEAN_MOTION_DOT = .44E-6
MEAN_MOTION_DDOT = 0

CCSDS_OMM_VERS = 2.0
CREATION_DATE  = 
ORIGINATOR     = 

OBJECT_NAME    = OKEAN-3
OBJECT_ID      = 1991-039A
CENTER_NAME    = EARTH
REF_FRAME      = TEME
TIME_SYSTEM    = UTC
MEAN_ELEMENT_THEORY = SGP/SGP4

EPOCH          = 2026-03-01T19:58:36.201216
MEAN_MOTION    = 15.04737753
ECCENTRICITY   = .0014427
INCLINATION    = 82.5201
RA_OF_ASC_NODE = 344.4534
ARG_OF_PERICENTER = 6.0249
MEAN_ANOMALY   = 354.1149

EPHEMERIS_TYPE = 0
CLASSIFICATION_TYPE = U
NORAD_CAT_ID   = 21397
ELEMENT_SET_NO = 999
REV_AT_EPOCH   = 86385
BSTAR          = .26283E-3
MEAN_MOTION_DOT = .3737E-4
MEAN_MOTION_DDOT = 0

CCSDS_OMM_VERS = 2.0
CREATION_DATE  = 
ORIGINATOR     = 

OBJECT_NAME    = COSMOS 2151
OBJECT_ID      = 1991-042A
CENTER_NAME    = EARTH
REF_FRAME      = TEME
TIME_SYSTEM    = UTC
MEAN_ELEMENT_THEORY = SGP/SGP4

EPOCH          = 2026-03-01T19:29:34.742688
MEAN_MOTION    = 15.00068239
ECCENTRICITY   = .0014148
INCLINATION    = 82.4932
RA_OF_ASC_NODE = 91.2769
ARG_OF_PERICENTER = 87.1188
MEAN_ANOMALY   = 273.1655

EPHEMERIS_TYPE = 0
CLASSIFICATION_TYPE = U
NORAD_CAT_ID   = 21422
ELEMENT_SET_NO = 999
REV_AT_EPOCH   = 86201
BSTAR          = .15944E-3
MEAN_MOTION_DOT = .2016E-4
MEAN_MOTION_DDOT = 0

