DELTA 2 R/B(1)          
1 20453U 90008B   26060.54377828  .00074143  00000+0  90457-3 0  9995
2 20453  35.6027 228.2657 0087148 183.1700 176.8491 15.54713167924864
COSMOS 2058             
1 20465U 90010A   26060.43797876  .00004775  00000+0  28222-3 0  9993
2 20465  82.4663  55.5574 0009960  10.7417 349.4024 15.11232471940997
SL-14 R/B               
1 20466U 90010B   26060.86307816  .00000481  00000+0  55350-4 0  9995
2 20466  82.4993 274.7424 0019036 329.6298  30.3813 14.83561019927322
SL-14 R/B               
1 20511U 90018B   26060.53582528  .00000611  00000+0  73610-4 0  9997
2 20511  82.5190 230.7117 0017558 116.7542 243.5471 14.82134195921375
HST                     
1 20580U 90037B   26060.39460694  .00008629  00000+0  28681-3 0  9991
2 20580  28.4699  96.5806 0001584  41.9765 318.0951 15.29328400772040
SL-16 R/B               
1 20625U 90046B   26060.85040685 -.00000150  00000+0 -52715-4 0  9995
2 20625  71.0005 314.3784 0016071 310.1899  49.7816 14.15014986847289
COSMOS 2084             
1 20663U 90055A   26060.81849153  .00003383  00000+0  24661-3 0  9997
2 20663  62.7921   2.4212 0018213 188.1686 171.9120 15.05591880935134
SL-6 R/B(2)             
1 20666U 90055D   26060.85690498  .00002302  00000+0  18142-3 0  9997
2 20666  62.7821 280.4880 0023523 345.0541  14.9860 15.03550401937017
SL-8 R/B                
1 20775U 90078B   26060.57843769  .00016351  00000+0  48020-3 0  9990
2 20775  82.8995 258.6057 0364180  41.2322 321.5795 14.88746040808092
SL-8 R/B                
1 21088U 91006B   26060.86367256  .00000044  00000+0  28210-4 0  9996
2 21088  82.9463 175.8634 0023476  59.4326  58.4915 13.77493201762990
OKEAN-3                 
1 21397U 91039A   26060.83236344  .00003737  00000+0  26283-3 0  9994
2 21397  82.5201 344.4534 0014427   6.0249 354.1149 15.04737753863857
COSMOS 2151             
1 21422U 91042A   26060.81220767  .00002016  00000+0  15944-3 0  9998
2 21422  82.4932  91.2769 0014148  87.1188 273.1655 15.00068239862016
